NORAD_CAT_ID,OBJECT_NAME,OBJECT_TYPE,EPOCH,MEAN_MOTION,ECCENTRICITY,INCLINATION,RA_OF_ASC_NODE,ARG_OF_PERICENTER,MEAN_ANOMALY,BSTAR,MEAN_MOTION_DOT,MEAN_MOTION_DDOT,TLE_LINE0,TLE_LINE1,TLE_LINE2,SEMIMAJOR_AXIS,PERIOD,APOGEE,PERIGEE,DECAYED
49760.0,STARLINK-3199,PAYLOAD,2024-05-13 01:19:41,15.08832277,9.18e-05,53.2181,247.2708,131.0949,229.0123,-0.00012001,-2.197e-05,0.0,0 STARLINK-3199,1 49760U 21115AN  24134.05534480 -.00002197  00000-0 -12001-3 0  9997,2 49760  53.2181 247.2708 0000918 131.0949 229.0123 15.08832277136308,6917.904,95.438,540.404,539.134,0.0
49760.0,STARLINK-3199,PAYLOAD,2024-05-13 12:27:24,15.0881957,5.82e-05,53.2153,245.1917,87.6409,272.4649,0.00088238,0.00013775,0.0,0 STARLINK-3199,1 49760U 21115AN  24134.51903494  .00013775  00000-0  88238-3 0  9990,2 49760  53.2153 245.1917 0000582  87.6409 272.4649 15.08819570136373,6917.943,95.439,540.21,539.405,0.0
49760.0,STARLINK-3199,PAYLOAD,2024-05-13 14:02:47,15.08834759,7.52e-05,53.217,244.8922,126.7379,233.3682,0.0011448,0.00017976,0.0,0 STARLINK-3199,1 49760U 21115AN  24134.58527489  .00017976  00000-0  11448-2 0  9998,2 49760  53.2170 244.8922 0000752 126.7379 233.3682 15.08834759135271,6917.896,95.438,540.282,539.241,0.0
49760.0,STARLINK-3199,PAYLOAD,2024-05-14 12:18:11,15.08845707,7.7e-05,53.2162,240.7285,141.3438,218.7609,0.0010047,0.00015741,0.0,0 STARLINK-3199,1 49760U 21115AN  24135.51263021  .00015741  00000-0  10047-2 0  9993,2 49760  53.2162 240.7285 0000770 141.3438 218.7609 15.08845707136528,6917.863,95.437,540.261,539.195,0.0
49760.0,STARLINK-3199,PAYLOAD,2024-05-14 13:53:34,15.08844416,7.4e-05,53.2179,240.4341,133.1412,226.9642,0.00094796,0.00014833,0.0,0 STARLINK-3199,1 49760U 21115AN  24135.57887072  .00014833  00000-0  94796-3 0  9992,2 49760  53.2179 240.4341 0000740 133.1412 226.9642 15.08844416135426,6917.867,95.437,540.244,539.22,0.0
49760.0,STARLINK-3199,PAYLOAD,2024-05-14 23:25:51,15.08871961,8.57e-05,53.2181,238.6476,126.7932,233.3139,0.0004031,6.139e-05,0.0,0 STARLINK-3199,1 49760U 21115AN  24135.97628812  .00006139  00000-0  40310-3 0  9994,2 49760  53.2181 238.6476 0000857 126.7932 233.3139 15.08871961136598,6917.783,95.436,540.241,539.055,0.0
49760.0,STARLINK-3199,PAYLOAD,2024-05-15 12:08:57,15.08847174,0.0001035,53.2177,236.2688,129.1548,230.9536,-0.00015293,-2.721e-05,0.0,0 STARLINK-3199,1 49760U 21115AN  24136.50621548 -.00002721  00000-0 -15293-3 0  9990,2 49760  53.2177 236.2688 0001035 129.1548 230.9536 15.08847174136673,6917.858,95.437,540.439,539.007,0.0
49760.0,STARLINK-3199,PAYLOAD,2024-05-15 13:44:20,15.08849508,7.11e-05,53.2169,235.9692,114.8918,245.2148,-0.00015066,-2.685e-05,0.0,0 STARLINK-3199,1 49760U 21115AN  24136.57245426 -.00002685  00000-0 -15066-3 0  9991,2 49760  53.2169 235.9692 0000711 114.8918 245.2148 15.08849508135576,6917.851,95.437,540.208,539.224,0.0
49760.0,STARLINK-3199,PAYLOAD,2024-05-16 13:35:07,15.08842734,6.81e-05,53.2168,231.5124,106.8937,253.2129,-7.6535e-05,-1.506e-05,0.0,0 STARLINK-3199,1 49760U 21115AN  24137.56605511 -.00001506  00000-0 -76535-4 0  9996,2 49760  53.2168 231.5124 0000681 106.8937 253.2129 15.08842734136837,6917.872,95.437,540.208,539.266,0.0
49760.0,STARLINK-3199,PAYLOAD,2024-05-16 23:07:24,15.08861487,6.09e-05,53.2171,229.7237,77.3918,282.7142,0.00014553,2.031e-05,0.0,0 STARLINK-3199,1 49760U 21115AN  24137.96348080  .00002031  00000-0  14553-3 0  9998,2 49760  53.2171 229.7237 0000609  77.3918 282.7142 15.08861487136890,6917.815,95.436,540.101,539.258,0.0
49760.0,STARLINK-3199,PAYLOAD,2024-05-17 11:50:32,15.08812837,0.0001143,53.217,227.3465,80.8936,279.2185,-0.00022655,-3.889e-05,0.0,0 STARLINK-3199,1 49760U 21115AN  24138.49343361 -.00003889  00000-0 -22655-3 0  9990,2 49760  53.2170 227.3465 0001143  80.8936 279.2185 15.08812837136971,6917.963,95.439,540.619,539.038,0.0
49760.0,STARLINK-3199,PAYLOAD,2024-05-18 05:19:46,15.08839359,4.7e-05,53.215,224.0763,85.3734,274.7312,0.0001959,2.832e-05,0.0,0 STARLINK-3199,1 49760U 21115AN  24139.22206442  .00002832  00000-0  19590-3 0  9999,2 49760  53.2150 224.0763 0000470  85.3734 274.7312 15.08839359137085,6917.882,95.438,540.072,539.422,0.0
49760.0,STARLINK-3199,PAYLOAD,2024-05-18 13:16:41,15.08869544,8.85e-05,53.2162,222.5868,94.6741,265.4352,0.00091765,0.00014358,0.0,0 STARLINK-3199,1 49760U 21115AN  24139.55325305  .00014358  00000-0  91765-3 0  9995,2 49760  53.2162 222.5868 0000885  94.6741 265.4352 15.08869544137134,6917.79,95.436,540.267,539.043,0.0
49760.0,STARLINK-3199,PAYLOAD,2024-05-19 11:32:05,15.0881931,8.95e-05,53.2145,218.4283,104.6027,255.5064,-0.0005839,-9.563e-05,0.0,0 STARLINK-3199,1 49760U 21115AN  24140.48062331 -.00009563  00000-0 -58390-3 0  9997,2 49760  53.2145 218.4283 0000895 104.6027 255.5064 15.08819310136168,6917.944,95.439,540.428,539.189,0.0
49760.0,STARLINK-3199,PAYLOAD,2024-05-20 11:22:53,15.08852722,0.000122,53.2164,213.964,122.7151,237.3958,0.001562,0.00024667,0.0,0 STARLINK-3199,1 49760U 21115AN  24141.47422668  .00024667  00000-0  15620-2 0  9998,2 49760  53.2164 213.9640 0001220 122.7151 237.3958 15.08852722137422,6917.842,95.437,540.55,538.863,0.0
49760.0,STARLINK-3199,PAYLOAD,2024-05-21 04:52:07,15.0885969,0.0001325,53.2167,210.6958,107.0946,253.0191,0.00094451,0.00014784,0.0,0 STARLINK-3199,1 49760U 21115AN  24142.20286320  .00014784  00000-0  94451-3 0  9992,2 49760  53.2167 210.6958 0001325 107.0946 253.0191 15.08859690137532,6917.82,95.436,540.602,538.769,0.0
49760.0,STARLINK-3199,PAYLOAD,2024-05-21 09:38:16,15.08850239,0.0001384,53.2175,209.796,118.2803,241.8329,0.00031773,4.774e-05,0.0,0 STARLINK-3199,1 49760U 21115AN  24142.40158207  .00004774  00000-0  31773-3 0  9992,2 49760  53.2175 209.7960 0001384 118.2803 241.8329 15.08850239137565,6917.849,95.437,540.672,538.757,0.0
49760.0,STARLINK-3199,PAYLOAD,2024-05-22 11:04:26,15.08832217,0.0001191,53.2159,205.0422,93.7785,266.3343,-0.0003489,-5.835e-05,0.0,0 STARLINK-3199,1 49760U 21115AN  24143.46141931 -.00005835  00000-0 -34890-3 0  9999,2 49760  53.2159 205.0422 0001191  93.7785 266.3343 15.08832217137723,6917.904,95.438,540.593,538.945,0.0
49760.0,STARLINK-3199,PAYLOAD,2024-05-23 09:19:51,15.08831926,0.0001246,53.2159,200.883,85.3511,274.7624,-4.7653e-05,-1.046e-05,0.0,0 STARLINK-3199,1 49760U 21115AN  24144.38878530 -.00001046  00000-0 -47653-4 0  9995,2 49760  53.2159 200.8830 0001246  85.3511 274.7624 15.08831926136757,6917.905,95.438,540.632,538.908,0.0
49760.0,STARLINK-3199,PAYLOAD,2024-05-24 12:21:24,15.08842758,0.0001291,53.2147,195.8318,100.6543,259.4595,0.00037388,5.668e-05,0.0,0 STARLINK-3199,1 49760U 21115AN  24145.51486409  .00005668  00000-0  37388-3 0  9996,2 49760  53.2147 195.8318 0001291 100.6543 259.4595 15.08842758138039,6917.872,95.437,540.63,538.844,0.0
49760.0,STARLINK-3199,PAYLOAD,2024-05-24 20:18:19,15.08849594,3.12e-05,53.214,194.3316,127.8245,232.2775,0.00041226,6.281e-05,0.0,0 STARLINK-3199,1 49760U 21115AN  24145.84605694  .00006281  00000-0  41226-3 0  9999,2 49760  53.2140 194.3316 0000312 127.8245 232.2775 15.08849594136972,6917.851,95.437,539.932,539.5,0.0
49760.0,STARLINK-3199,PAYLOAD,2024-05-25 10:36:48,15.08837946,0.0001204,53.2143,191.6638,99.8737,260.2391,0.00011979,1.619e-05,0.0,0 STARLINK-3199,1 49760U 21115AN  24146.44222669  .00001619  00000-0  11979-3 0  9995,2 49760  53.2143 191.6638 0001204  99.8737 260.2391 15.08837946138174,6917.887,95.438,540.585,538.919,0.0
49760.0,STARLINK-3199,PAYLOAD,2024-05-26 10:27:35,15.08845594,0.0001154,53.215,187.2032,85.748,274.3644,0.00022374,3.275e-05,0.0,0 STARLINK-3199,1 49760U 21115AN  24147.43582554  .00003275  00000-0  22374-3 0  9998,2 49760  53.2150 187.2032 0001154  85.7480 274.3644 15.08845594137213,6917.863,95.437,540.527,538.93,0.0
49760.0,STARLINK-3199,PAYLOAD,2024-05-26 19:59:53,15.08850109,0.0001102,53.215,185.419,70.2647,289.8464,0.0001619,2.29e-05,0.0,0 STARLINK-3199,1 49760U 21115AN  24147.83326227  .00002290  00000-0  16190-3 0  9990,2 49760  53.2150 185.4190 0001102  70.2647 289.8464 15.08850109138383,6917.849,95.437,540.477,538.952,0.0
49760.0,STARLINK-3199,PAYLOAD,2024-05-27 02:21:26,15.088419,0.0001268,53.2152,184.2302,92.7287,267.385,0.00015086,2.114e-05,0.0,0 STARLINK-3199,1 49760U 21115AN  24148.09822683  .00002114  00000-0  15086-3 0  9994,2 49760  53.2152 184.2302 0001268  92.7287 267.3850 15.08841900138423,6917.875,95.437,540.617,538.862,0.0
49760.0,STARLINK-3199,PAYLOAD,2024-05-27 08:42:59,15.08844598,0.0001395,53.2153,183.0404,80.641,279.474,0.00017827,2.551e-05,0.0,0 STARLINK-3199,1 49760U 21115AN  24148.36318629  .00002551  00000-0  17827-3 0  9994,2 49760  53.2153 183.0404 0001395  80.6410 279.4740 15.08844598137358,6917.866,95.437,540.696,538.766,0.0
49760.0,STARLINK-3199,PAYLOAD,2024-05-28 05:22:59,15.08842532,0.0001331,53.2151,179.1745,84.2146,275.8998,6.6353e-05,7.68e-06,0.0,0 STARLINK-3199,1 49760U 21115AN  24149.22430535  .00000768  00000-0  66353-4 0  9998,2 49760  53.2151 179.1745 0001331  84.2146 275.8998 15.08842532138594,6917.873,95.437,540.658,538.817,0.0
49760.0,STARLINK-3199,PAYLOAD,2024-05-28 08:33:46,15.08842331,0.0001323,53.2151,178.5797,84.3116,275.8027,5.3169e-05,5.58e-06,0.0,0 STARLINK-3199,1 49760U 21115AN  24149.35678500  .00000558  00000-0  53169-4 0  9996,2 49760  53.2151 178.5797 0001323  84.3116 275.8027 15.08842331137503,6917.873,95.437,540.653,538.823,0.0
49760.0,STARLINK-3199,PAYLOAD,2024-05-29 05:13:47,15.08835831,0.0001266,53.2153,174.7128,84.4638,275.6499,-6.1572e-07,-2.98e-06,0.0,0 STARLINK-3199,1 49760U 21115AN  24150.21790978 -.00000298  00000-0 -61572-6 0  9999,2 49760  53.2153 174.7128 0001266  84.4638 275.6499 15.08835831138742,6917.893,95.438,540.634,538.882,0.0
49760.0,STARLINK-3199,PAYLOAD,2024-05-29 11:35:20,15.08834141,0.0001269,53.2159,173.5242,89.5496,270.5642,-2.3149e-05,-6.56e-06,0.0,0 STARLINK-3199,1 49760U 21115AN  24150.48287165 -.00000656  00000-0 -23149-4 0  9991,2 49760  53.2159 173.5242 0001269  89.5496 270.5642 15.08834141137671,6917.898,95.438,540.641,538.885,0.0
